{"type": "FeatureCollection", "features": [ {"type": "Feature", "properties": {"norad_id": 66345, "name": "STARLINK-35440", "group": "last-30-days", "lat": 11.412208053570202, "lon": 50.260628683327475, "alt_km": 425.9445974706214, "timestamp": "2025-12-03T15:48:01.917453+00:00", "meta": {"OBJECT_NAME": "STARLINK-35440", "OBJECT_ID": "2025-253AC", "EPOCH": "2025-12-03T08:00:01.999872", "MEAN_MOTION": 15.47843931, "ECCENTRICITY": 0.00013527, "INCLINATION": 43.0003, "RA_OF_ASC_NODE": 39.6416, "ARG_OF_PERICENTER": 267.426, "MEAN_ANOMALY": 97.2641, "EPHEMERIS_TYPE": 0, "CLASSIFICATION_TYPE": "U", "NORAD_CAT_ID": 66345, "ELEMENT_SET_NO": 999, "REV_AT_EPOCH": 541, "BSTAR": -0.044742388, "MEAN_MOTION_DOT": -0.02112907, "MEAN_MOTION_DDOT": 0}, "tle": {"line1": "1 66345U 25253AC  25337.33335648 -.02112907  00000+0 -44742-1 0  9991", "line2": "2 66345  43.0003  39.6416 0001352 267.4260  97.2641 15.47843931  5417"}}, "geometry": {"type": "Point", "coordinates": [50.260628683327475, 11.412208053570202]}}, {"type": "Feature", "properties": {"norad_id": 66346, "name": "STARLINK-35482", "group": "last-30-days", "lat": 17.427942655532522, "lon": 57.41388027724029, "alt_km": 412.391898715392, "timestamp": "2025-12-03T15:48:01.917467+00:00", "meta": {"OBJECT_NAME": "STARLINK-35482", "OBJECT_ID": "2025-253AD", "EPOCH": "2025-12-03T04:52:02.600832", "MEAN_MOTION": 15.50595859, "ECCENTRICITY": 0.00012786, "INCLINATION": 42.9992, "RA_OF_ASC_NODE": 40.3922, "ARG_OF_PERICENTER": 264.1211, "MEAN_ANOMALY": 95.9503, "EPHEMERIS_TYPE": 0, "CLASSIFICATION_TYPE": "U", "NORAD_CAT_ID": 66346, "ELEMENT_SET_NO": 999, "REV_AT_EPOCH": 545, "BSTAR": 0.0016158403, "MEAN_MOTION_DOT": 0.00095675, "MEAN_MOTION_DDOT": 0}, "tle": {"line1": "1 66346U 25253AD  25337.20280788  .00095675  00000+0  16158-2 0  9991", "line2": "2 66346  42.9992  40.3922 0001278 264.1211  95.9503 15.50595859  5454"}}, "geometry": {"type": "Point", "coordinates": [57.41388027724029, 17.427942655532522]}}, {"type": "Feature", "properties": {"norad_id": 66347, "name": "STARLINK-35438", "group": "last-30-days", "lat": 20.68176211501863, "lon": 61.60841724796731, "alt_km": 411.6116463552635, "timestamp": "2025-12-03T15:48:01.917478+00:00", "meta": {"OBJECT_NAME": "STARLINK-35438", "OBJECT_ID": "2025-253AE", "EPOCH": "2025-12-02T11:50:43.167552", "MEAN_MOTION": 15.50748022, "ECCENTRICITY": 0.00051686, "INCLINATION": 43.0001, "RA_OF_ASC_NODE": 44.5284, "ARG_OF_PERICENTER": 271.7306, "MEAN_ANOMALY": 88.2962, "EPHEMERIS_TYPE": 0, "CLASSIFICATION_TYPE": "U", "NORAD_CAT_ID": 66347, "ELEMENT_SET_NO": 999, "REV_AT_EPOCH": 534, "BSTAR": 0.0023229767, "MEAN_MOTION_DOT": 0.00139273, "MEAN_MOTION_DDOT": 0}, "tle": {"line1": "1 66347U 25253AE  25336.49355518  .00139273  00000+0  23230-2 0  9998", "line2": "2 66347  43.0001  44.5284 0005168 271.7306  88.2962 15.50748022  5340"}}, "geometry": {"type": "Point", "coordinates": [61.60841724796731, 20.68176211501863]}}, {"type": "Feature", "properties": {"norad_id": 66348, "name": "STARLINK-35849", "group": "last-30-days", "lat": -29.829869169210273, "lon": 165.6257208706437, "alt_km": 385.3641994107993, "timestamp": "2025-12-03T15:48:01.917490+00:00", "meta": {"OBJECT_NAME": "STARLINK-35849", "OBJECT_ID": "2025-254A", "EPOCH": "2025-12-03T08:00:01.999872", "MEAN_MOTION": 15.63790696, "ECCENTRICITY": 0.00014155, "INCLINATION": 53.1596, "RA_OF_ASC_NODE": 321.7514, "ARG_OF_PERICENTER": 82.006, "MEAN_ANOMALY": 106.5113, "EPHEMERIS_TYPE": 0, "CLASSIFICATION_TYPE": "U", "NORAD_CAT_ID": 66348, "ELEMENT_SET_NO": 999, "REV_AT_EPOCH": 541, "BSTAR": -0.024028968, "MEAN_MOTION_DOT": -0.02013647, "MEAN_MOTION_DDOT": 0}, "tle": {"line1": "1 66348U 25254A   25337.33335648 -.02013647  00000+0 -24029-1 0  9992", "line2": "2 66348  53.1596 321.7514 0001415  82.0060 106.5113 15.63790696  5417"}}, "geometry": {"type": "Point", "coordinates": [165.6257208706437, -29.829869169210273]}}, {"type": "Feature", "properties": {"norad_id": 66349, "name": "STARLINK-35848", "group": "last-30-days", "lat": -31.204377211168428, "lon": 167.16946944406308, "alt_km": 385.48063874099444, "timestamp": "2025-12-03T15:48:01.918066+00:00", "meta": {"OBJECT_NAME": "STARLINK-35848", "OBJECT_ID": "2025-254B", "EPOCH": "2025-12-03T08:00:01.999872", "MEAN_MOTION": 15.63784282, "ECCENTRICITY": 0.00014596, "INCLINATION": 53.1596, "RA_OF_ASC_NODE": 321.7469, "ARG_OF_PERICENTER": 83.7428, "MEAN_ANOMALY": 106.6957, "EPHEMERIS_TYPE": 0, "CLASSIFICATION_TYPE": "U", "NORAD_CAT_ID": 66349, "ELEMENT_SET_NO": 999, "REV_AT_EPOCH": 541, "BSTAR": -0.023939526, "MEAN_MOTION_DOT": -0.02006657, "MEAN_MOTION_DDOT": 0}, "tle": {"line1": "1 66349U 25254B   25337.33335648 -.02006657  00000+0 -23940-1 0  9997", "line2": "2 66349  53.1596 321.7469 0001459  83.7428 106.6957 15.63784282  5412"}}, "geometry": {"type": "Point", "coordinates": [167.16946944406308, -31.204377211168428]}}, {"type": "Feature", "properties": {"norad_id": 66350, "name": "STARLINK-35829", "group": "last-30-days", "lat": -32.55893276819902, "lon": 168.7576686491256, "alt_km": 385.60931248019733, "timestamp": "2025-12-03T15:48:01.918107+00:00", "meta": {"OBJECT_NAME": "STARLINK-35829", "OBJECT_ID": "2025-254C", "EPOCH": "2025-12-03T08:00:01.999872", "MEAN_MOTION": 15.63788835, "ECCENTRICITY": 0.00015177, "INCLINATION": 53.1599, "RA_OF_ASC_NODE": 321.7429, "ARG_OF_PERICENTER": 84.0447, "MEAN_ANOMALY": 108.3064, "EPHEMERIS_TYPE": 0, "CLASSIFICATION_TYPE": "U", "NORAD_CAT_ID": 66350, "ELEMENT_SET_NO": 999, "REV_AT_EPOCH": 541, "BSTAR": -0.023993973, "MEAN_MOTION_DOT": -0.02011024, "MEAN_MOTION_DDOT": 0}, "tle": {"line1": "1 66350U 25254C   25337.33335648 -.02011024  00000+0 -23994-1 0  9992", "line2": "2 66350  53.1599 321.7429 0001517  84.0447 108.3064 15.63788835  5419"}}, "geometry": {"type": "Point", "coordinates": [168.7576686491256, -32.55893276819902]}}, {"type": "Feature", "properties": {"norad_id": 66351, "name": "STARLINK-35828", "group": "last-30-days", "lat": -33.894581111950075, "lon": 170.3969142422945, "alt_km": 385.6729969398848, "timestamp": "2025-12-03T15:48:01.918119+00:00", "meta": {"OBJECT_NAME": "STARLINK-35828", "OBJECT_ID": "2025-254D", "EPOCH": "2025-12-03T08:00:01.999872", "MEAN_MOTION": 15.63768158, "ECCENTRICITY": 0.00014011, "INCLINATION": 53.1598, "RA_OF_ASC_NODE": 321.7388, "ARG_OF_PERICENTER": 83.3672, "MEAN_ANOMALY": 110.9195, "EPHEMERIS_TYPE": 0, "CLASSIFICATION_TYPE": "U", "NORAD_CAT_ID": 66351, "ELEMENT_SET_NO": 999, "REV_AT_EPOCH": 538, "BSTAR": -0.023756332, "MEAN_MOTION_DOT": -0.01992003, "MEAN_MOTION_DDOT": 0}, "tle": {"line1": "1 66351U 25254D   25337.33335648 -.01992003  00000+0 -23756-1 0  9993", "line2": "2 66351  53.1598 321.7388 0001401  83.3672 110.9195 15.63768158  5383"}}, "geometry": {"type": "Point", "coordinates": [170.3969142422945, -33.894581111950075]}}, {"type": "Feature", "properties": {"norad_id": 66352, "name": "STARLINK-35850", "group": "last-30-days", "lat": -35.205068378131436, "lon": 172.08373921586752, "alt_km": 385.75114777543877, "timestamp": "2025-12-03T15:48:01.918136+00:00", "meta": {"OBJECT_NAME": "STARLINK-35850", "OBJECT_ID": "2025-254E", "EPOCH": "2025-12-03T08:00:01.999872", "MEAN_MOTION": 15.63788943, "ECCENTRICITY": 0.00014511, "INCLINATION": 53.1601, "RA_OF_ASC_NODE": 321.7345, "ARG_OF_PERICENTER": 85.991, "MEAN_ANOMALY": 110.1949, "EPHEMERIS_TYPE": 0, "CLASSIFICATION_TYPE": "U", "NORAD_CAT_ID": 66352, "ELEMENT_SET_NO": 999, "REV_AT_EPOCH": 536, "BSTAR": -0.023998896, "MEAN_MOTION_DOT": -0.02011341, "MEAN_MOTION_DDOT": 0}, "tle": {"line1": "1 66352U 25254E   25337.33335648 -.02011341  00000+0 -23999-1 0  9991", "line2": "2 66352  53.1601 321.7345 0001451  85.9910 110.1949 15.63788943  5361"}}, "geometry": {"type": "Point", "coordinates": [172.08373921586752, -35.205068378131436]}}, {"type": "Feature", "properties": {"norad_id": 66353, "name": "STARLINK-35869", "group": "last-30-days", "lat": -36.492058239505944, "lon": 173.82725689266263, "alt_km": 385.85548727864625, "timestamp": "2025-12-03T15:48:01.918147+00:00", "meta": {"OBJECT_NAME": "STARLINK-35869", "OBJECT_ID": "2025-254F", "EPOCH": "2025-12-03T08:00:01.999872", "MEAN_MOTION": 15.63788588, "ECCENTRICITY": 0.00014328, "INCLINATION": 53.16, "RA_OF_ASC_NODE": 321.7303, "ARG_OF_PERICENTER": 83.7192, "MEAN_ANOMALY": 114.385, "EPHEMERIS_TYPE": 0, "CLASSIFICATION_TYPE": "U", "NORAD_CAT_ID": 66353, "ELEMENT_SET_NO": 999, "REV_AT_EPOCH": 541, "BSTAR": -0.024012591, "MEAN_MOTION_DOT": -0.02012308, "MEAN_MOTION_DDOT": 0}, "tle": {"line1": "1 66353U 25254F   25337.33335648 -.02012308  00000+0 -24013-1 0  9994", "line2": "2 66353  53.1600 321.7303 0001432  83.7192 114.3850 15.63788588  5410"}}, "geometry": {"type": "Point", "coordinates": [173.82725689266263, -36.492058239505944]}}, {"type": "Feature", "properties": {"norad_id": 66354, "name": "STARLINK-35895", "group": "last-30-days", "lat": 38.770322363375364, "lon": -2.4756034780319425, "alt_km": 413.04823933811986, "timestamp": "2025-12-03T15:48:01.918158+00:00", "meta": {"OBJECT_NAME": "STARLINK-35895", "OBJECT_ID": "2025-254G", "EPOCH": "2025-12-03T08:00:01.999872", "MEAN_MOTION": 15.49285556, "ECCENTRICITY": 0.00015198, "INCLINATION": 53.1593, "RA_OF_ASC_NODE": 322.0535, "ARG_OF_PERICENTER": 95.1842, "MEAN_ANOMALY": 302.7032, "EPHEMERIS_TYPE": 0, "CLASSIFICATION_TYPE": "U", "NORAD_CAT_ID": 66354, "ELEMENT_SET_NO": 999, "REV_AT_EPOCH": 541, "BSTAR": -0.00011769668, "MEAN_MOTION_DOT": -6.983e-05, "MEAN_MOTION_DDOT": 0}, "tle": {"line1": "1 66354U 25254G   25337.33335648 -.00006983  00000+0 -11770-3 0  9993", "line2": "2 66354  53.1593 322.0535 0001519  95.1842 302.7032 15.49285556  5414"}}, "geometry": {"type": "Point", "coordinates": [-2.4756034780319425, 38.770322363375364]}}]}